start=new Date('2023-06-28T00:00:00.000Z').valueOf();
sats=[{"REF_FRAME":"TEME","FILE":"3943925","PERIAPSIS":"538.960","INCLINATION":"53.2158","CLASSIFICATION_TYPE":"U","RA_OF_ASC_NODE":"299.2706","DECAY_DATE":null,"ELEMENT_SET_NO":"999","PERIOD":"95.438","REV_AT_EPOCH":"6694","EPHEMERIS_TYPE":"0","SITE":"AFETR","OBJECT_ID":"2022-045AU","MEAN_MOTION_DDOT":"0.0000000000000","EPOCH":"2023-06-26T20:06:34.643808","CENTER_NAME":"EARTH","MEAN_MOTION":"15.08836932","ECCENTRICITY":"0.00011490","TLE_LINE2":"2 52373  53.2158 299.2706 0001149  90.3488 269.7636 15.08836932 66947","GP_ID":"234580233","NORAD_CAT_ID":"52373","SEMIMAJOR_AXIS":"6917.890","APOAPSIS":"540.550","MEAN_MOTION_DOT":"0.00000384","LAUNCH_DATE":"2022-04-29","OBJECT_NAME":"STARLINK-3550","ARG_OF_PERICENTER":"90.3488","MEAN_ELEMENT_THEORY":"SGP4","OBJECT_TYPE":"PAYLOAD","BSTAR":"0.00004224300000","MEAN_ANOMALY":"269.7636","RCS_SIZE":"LARGE","TLE_LINE1":"1 52373U 22045AU  23177.83790097  .00000384  00000-0  42243-4 0  9990","TIME_SYSTEM":"UTC","COUNTRY_CODE":"US"},{"RA_OF_ASC_NODE":"295.3874","DECAY_DATE":null,"INCLINATION":"53.2167","PERIAPSIS":"538.983","CLASSIFICATION_TYPE":"U","REF_FRAME":"TEME","FILE":"3944545","MEAN_MOTION_DDOT":"0.0000000000000","EPOCH":"2023-06-27T16:51:53.610048","CENTER_NAME":"EARTH","REV_AT_EPOCH":"6707","EPHEMERIS_TYPE":"0","SITE":"AFETR","OBJECT_ID":"2022-045AV","PERIOD":"95.437","ELEMENT_SET_NO":"999","MEAN_MOTION_DOT":"0.00010498","APOAPSIS":"540.451","TLE_LINE2":"2 52374  53.2167 295.3874 0001061  82.0308 278.0804 15.08849182 67079","GP_ID":"234595814","NORAD_CAT_ID":"52374","SEMIMAJOR_AXIS":"6917.852","MEAN_MOTION":"15.08849182","ECCENTRICITY":"0.00010610","TLE_LINE1":"1 52374U 22045AV  23178.70270382  .00010498  00000-0  67651-3 0  9994","TIME_SYSTEM":"UTC","COUNTRY_CODE":"US","OBJECT_TYPE":"PAYLOAD","BSTAR":"0.00067651000000","MEAN_ANOMALY":"278.0804","RCS_SIZE":"LARGE","OBJECT_NAME":"STARLINK-3762","ARG_OF_PERICENTER":"82.0308","MEAN_ELEMENT_THEORY":"SGP4","LAUNCH_DATE":"2022-04-29"},{"REF_FRAME":"TEME","FILE":"3944222","INCLINATION":"53.2165","PERIAPSIS":"539.103","CLASSIFICATION_TYPE":"U","RA_OF_ASC_NODE":"297.1566","DECAY_DATE":null,"PERIOD":"95.438","ELEMENT_SET_NO":"999","REV_AT_EPOCH":"6701","EPHEMERIS_TYPE":"0","SITE":"AFETR","OBJECT_ID":"2022-045AW","MEAN_MOTION_DDOT":"0.0000000000000","EPOCH":"2023-06-27T07:24:52.928352","CENTER_NAME":"EARTH","MEAN_MOTION":"15.08836897","ECCENTRICITY":"0.00009420","TLE_LINE2":"2 52375  53.2165 297.1566 0000942  78.1698 281.9399 15.08836897 67016","NORAD_CAT_ID":"52375","GP_ID":"234587086","SEMIMAJOR_AXIS":"6917.890","APOAPSIS":"540.407","MEAN_MOTION_DOT":"0.00007164","LAUNCH_DATE":"2022-04-29","ARG_OF_PERICENTER":"78.1698","OBJECT_NAME":"STARLINK-3785","MEAN_ELEMENT_THEORY":"SGP4","OBJECT_TYPE":"PAYLOAD","BSTAR":"0.00046777000000","RCS_SIZE":"LARGE","MEAN_ANOMALY":"281.9399","TLE_LINE1":"1 52375U 22045AW  23178.30894593  .00007164  00000-0  46777-3 0  9999","TIME_SYSTEM":"UTC","COUNTRY_CODE":"US"},{"COUNTRY_CODE":"US","TLE_LINE1":"1 52376U 22045AX  23178.69534104  .00002151  00000-0  15318-3 0  9999","TIME_SYSTEM":"UTC","MEAN_ANOMALY":"259.8117","RCS_SIZE":"LARGE","OBJECT_TYPE":"PAYLOAD","BSTAR":"0.00015318000000","MEAN_ELEMENT_THEORY":"SGP4","ARG_OF_PERICENTER":"100.2985","OBJECT_NAME":"STARLINK-3767","LAUNCH_DATE":"2022-04-29","MEAN_MOTION_DOT":"0.00002151","APOAPSIS":"540.407","GP_ID":"234595427","NORAD_CAT_ID":"52376","SEMIMAJOR_AXIS":"6917.867","TLE_LINE2":"2 52376  53.2171 295.4236 0000976 100.2985 259.8117 15.08844353 67076","MEAN_MOTION":"15.08844353","ECCENTRICITY":"0.00009760","CENTER_NAME":"EARTH","MEAN_MOTION_DDOT":"0.0000000000000","EPOCH":"2023-06-27T16:41:17.465856","SITE":"AFETR","OBJECT_ID":"2022-045AX","REV_AT_EPOCH":"6707","EPHEMERIS_TYPE":"0","PERIOD":"95.437","ELEMENT_SET_NO":"999","DECAY_DATE":null,"RA_OF_ASC_NODE":"295.4236","CLASSIFICATION_TYPE":"U","INCLINATION":"53.2171","PERIAPSIS":"539.057","REF_FRAME":"TEME","FILE":"3944546"},{"PERIOD":"95.438","ELEMENT_SET_NO":"999","REV_AT_EPOCH":"6704","EPHEMERIS_TYPE":"0","SITE":"AFETR","OBJECT_ID":"2022-045AY","MEAN_MOTION_DDOT":"0.0000000000000","EPOCH":"2023-06-27T14:02:21.498720","CENTER_NAME":"EARTH","REF_FRAME":"TEME","FILE":"3944545","INCLINATION":"53.2170","PERIAPSIS":"539.162","CLASSIFICATION_TYPE":"U","RA_OF_ASC_NODE":"296.1381","DECAY_DATE":null,"LAUNCH_DATE":"2022-04-29","ARG_OF_PERICENTER":"75.4284","OBJECT_NAME":"STARLINK-3805","MEAN_ELEMENT_THEORY":"SGP4","OBJECT_TYPE":"PAYLOAD","BSTAR":"0.00013182000000","RCS_SIZE":"LARGE","MEAN_ANOMALY":"284.6802","TLE_LINE1":"1 52377U 22045AY  23178.58497105  .00001811  00000-0  13182-3 0  9996","TIME_SYSTEM":"UTC","COUNTRY_CODE":"US","MEAN_MOTION":"15.08840206","ECCENTRICITY":"0.00008420","TLE_LINE2":"2 52377  53.2170 296.1381 0000842  75.4284 284.6802 15.08840206 67049","GP_ID":"234595821","NORAD_CAT_ID":"52377","SEMIMAJOR_AXIS":"6917.880","APOAPSIS":"540.327","MEAN_MOTION_DOT":"0.00001811"},{"TIME_SYSTEM":"UTC","TLE_LINE1":"1 52378U 22045AZ  23177.76062119  .00000132  00000-0  26394-4 0  9994","COUNTRY_CODE":"US","BSTAR":"0.00002639400000","OBJECT_TYPE":"PAYLOAD","RCS_SIZE":"LARGE","MEAN_ANOMALY":"270.8071","ARG_OF_PERICENTER":"89.3037","OBJECT_NAME":"STARLINK-3806","MEAN_ELEMENT_THEORY":"SGP4","LAUNCH_DATE":"2022-04-29","MEAN_MOTION_DOT":"0.00000132","APOAPSIS":"540.443","TLE_LINE2":"2 52378  53.2173 299.6193 0001008  89.3037 270.8071 15.08839845 66936","SEMIMAJOR_AXIS":"6917.881","GP_ID":"234587079","NORAD_CAT_ID":"52378","ECCENTRICITY":"0.00010080","MEAN_MOTION":"15.08839845","EPOCH":"2023-06-26T18:15:17.670816","MEAN_MOTION_DDOT":"0.0000000000000","CENTER_NAME":"EARTH","EPHEMERIS_TYPE":"0","REV_AT_EPOCH":"6693","OBJECT_ID":"2022-045AZ","SITE":"AFETR","ELEMENT_SET_NO":"999","PERIOD":"95.438","RA_OF_ASC_NODE":"299.6193","DECAY_DATE":null,"PERIAPSIS":"539.049","INCLINATION":"53.2173","CLASSIFICATION_TYPE":"U","FILE":"3944222","REF_FRAME":"TEME"},{"BSTAR":"0.00013510000000","OBJECT_TYPE":"PAYLOAD","RCS_SIZE":"LARGE","MEAN_ANOMALY":"268.4744","TIME_SYSTEM":"UTC","TLE_LINE1":"1 52379U 22045BA  23178.62541991  .00001863  00000-0  13510-3 0  9998","COUNTRY_CODE":"US","LAUNCH_DATE":"2022-04-29","OBJECT_NAME":"STARLINK-3800","ARG_OF_PERICENTER":"91.6366","MEAN_ELEMENT_THEORY":"SGP4","APOAPSIS":"540.438","MEAN_MOTION_DOT":"0.00001863","ECCENTRICITY":"0.00010290","MEAN_MOTION":"15.08846339","TLE_LINE2":"2 52379  53.2178 295.7354 0001029  91.6366 268.4744 15.08846339 67063","SEMIMAJOR_AXIS":"6917.861","NORAD_CAT_ID":"52379","GP_ID":"234595397","EPHEMERIS_TYPE":"0","REV_AT_EPOCH":"6706","OBJECT_ID":"2022-045BA","SITE":"AFETR","EPOCH":"2023-06-27T15:00:36.280224","MEAN_MOTION_DDOT":"0.0000000000000","CENTER_NAME":"EARTH","ELEMENT_SET_NO":"999","PERIOD":"95.437","PERIAPSIS":"539.014","INCLINATION":"53.2178","CLASSIFICATION_TYPE":"U","RA_OF_ASC_NODE":"295.7354","DECAY_DATE":null,"FILE":"3944545","REF_FRAME":"TEME"},{"CLASSIFICATION_TYPE":"U","PERIAPSIS":"539.027","INCLINATION":"53.2172","DECAY_DATE":null,"RA_OF_ASC_NODE":"290.3216","FILE":"3943675","REF_FRAME":"TEME","OBJECT_ID":"2022-045BB","SITE":"AFETR","EPHEMERIS_TYPE":"0","REV_AT_EPOCH":"6704","CENTER_NAME":"EARTH","EPOCH":"2023-06-26T14:39:21.385152","MEAN_MOTION_DDOT":"0.0000000000000","ELEMENT_SET_NO":"999","PERIOD":"95.437","APOAPSIS":"540.449","MEAN_MOTION_DOT":"0.00003192","ECCENTRICITY":"0.00010280","MEAN_MOTION":"15.08842357","SEMIMAJOR_AXIS":"6917.873","NORAD_CAT_ID":"52380","GP_ID":"234574675","TLE_LINE2":"2 52380  53.2172 290.3216 0001028  93.1094 267.0015 15.08842357 67041","RCS_SIZE":"LARGE","MEAN_ANOMALY":"267.0015","BSTAR":"0.00021852000000","OBJECT_TYPE":"PAYLOAD","COUNTRY_CODE":"US","TIME_SYSTEM":"UTC","TLE_LINE1":"1 52380U 22045BB  23177.61066418  .00003192  00000-0  21852-3 0  9999","LAUNCH_DATE":"2022-04-29","MEAN_ELEMENT_THEORY":"SGP4","ARG_OF_PERICENTER":"93.1094","OBJECT_NAME":"STARLINK-3793"},{"ELEMENT_SET_NO":"999","PERIOD":"95.437","EPHEMERIS_TYPE":"0","REV_AT_EPOCH":"6706","OBJECT_ID":"2022-045BC","SITE":"AFETR","EPOCH":"2023-06-27T14:50:00.365856","MEAN_MOTION_DDOT":"0.0000000000000","CENTER_NAME":"EARTH","FILE":"3944545","REF_FRAME":"TEME","INCLINATION":"53.2180","PERIAPSIS":"538.995","CLASSIFICATION_TYPE":"U","RA_OF_ASC_NODE":"295.7696","DECAY_DATE":null,"LAUNCH_DATE":"2022-04-29","ARG_OF_PERICENTER":"97.1418","OBJECT_NAME":"STARLINK-3803","MEAN_ELEMENT_THEORY":"SGP4","BSTAR":"0.00016046000000","OBJECT_TYPE":"PAYLOAD","MEAN_ANOMALY":"262.9694","RCS_SIZE":"LARGE","TIME_SYSTEM":"UTC","TLE_LINE1":"1 52381U 22045BC  23178.61805979  .00002267  00000-0  16046-3 0  9995","COUNTRY_CODE":"US","ECCENTRICITY":"0.00010540","MEAN_MOTION":"15.08846988","TLE_LINE2":"2 52381  53.2180 295.7696 0001054  97.1418 262.9694 15.08846988 67068","SEMIMAJOR_AXIS":"6917.859","GP_ID":"234595395","NORAD_CAT_ID":"52381","APOAPSIS":"540.453","MEAN_MOTION_DOT":"0.00002267"},{"ECCENTRICITY":"0.00010020","MEAN_MOTION":"15.08847376","SEMIMAJOR_AXIS":"6917.858","NORAD_CAT_ID":"52382","GP_ID":"234595394","TLE_LINE2":"2 52382  53.2172 295.4994 0001002 100.5491 259.5614 15.08847376 67078","APOAPSIS":"540.416","MEAN_MOTION_DOT":"0.00002701","LAUNCH_DATE":"2022-04-29","MEAN_ELEMENT_THEORY":"SGP4","ARG_OF_PERICENTER":"100.5491","OBJECT_NAME":"STARLINK-3799","MEAN_ANOMALY":"259.5614","RCS_SIZE":"LARGE","BSTAR":"0.00018771000000","OBJECT_TYPE":"PAYLOAD","COUNTRY_CODE":"US","TIME_SYSTEM":"UTC","TLE_LINE1":"1 52382U 22045BD  23178.68062059  .00002701  00000-0  18771-3 0  9997","FILE":"3944545","REF_FRAME":"TEME","CLASSIFICATION_TYPE":"U","INCLINATION":"53.2172","PERIAPSIS":"539.030","DECAY_DATE":null,"RA_OF_ASC_NODE":"295.4994","ELEMENT_SET_NO":"999","PERIOD":"95.437","OBJECT_ID":"2022-045BD","SITE":"AFETR","EPHEMERIS_TYPE":"0","REV_AT_EPOCH":"6707","CENTER_NAME":"EARTH","EPOCH":"2023-06-27T16:20:05.618976","MEAN_MOTION_DDOT":"0.0000000000000"}];
